0 SL-12 R/B(2)
1 15581U 85016F   13282.36062071  .00000043  00000-0  10000-3 0  7293
2 15581 015.0167 359.5178 0029529 124.1077 236.1819 00.99403026 75879
0 SL-12 R/B(2)
1 15581U 85016F   13285.37850624 -.00000001  00000-0  10000-3 0  7303
2 15581 015.0173 359.4874 0029491 125.0926 235.1881 00.99404212 75909
0 SL-12 R/B(2)
1 15581U 85016F   13288.39632927 -.00000059  00000-0  10000-3 0  7316
2 15581 015.0180 359.4564 0029614 125.0508 235.2203 00.99405429 75939
0 SL-12 R/B(2)
1 15581U 85016F   13288.39633528 -.00000059  00000-0  10000-3 0  7325
2 15581 015.0180 359.4567 0029295 125.7913 234.4750 00.99405395 75934
0 SL-12 R/B(2)
1 15581U 85016F   13293.42598847 -.00000165  00000-0  10000-3 0  7338
2 15581 015.0192 359.4050 0029309 125.9304 234.3278 00.99406997 75984
0 SL-12 R/B(2)
1 15581U 85016F   13295.43785119 -.00000206  00000-0  10000-3 0  7348
2 15581 015.0197 359.3846 0029160 126.2750 233.9849 00.99407373 76007
